ONEWEB-0055             
1 45443U 20020V   24227.53757718 -.00000065  00000+0 -21977-3 0  9995
2 45443  87.9001 154.7855 0001877  76.5561 283.5776 13.11421754214582
ONEWEB-0093             
1 45444U 20020W   24227.51298924 -.00000356  00000+0 -10417-2 0  9992
2 45444  87.8998 154.7724 0001777  72.3183 287.8139 13.11414897214642
ONEWEB-0029             
1 45445U 20020X   24227.53164552 -.00000343  00000+0 -10029-2 0  9999
2 45445  87.9003 154.7820 0002002  71.1454 288.9890 13.11418563214626
ONEWEB-0068             
1 45446U 20020Y   24227.50705711 -.00000138  00000+0 -42549-3 0  9990
2 45446  87.8998 154.7726 0001943  71.9497 288.1842 13.11416706214561
ONEWEB-0046             
1 45447U 20020Z   24227.50451854  .00000008  00000+0 -12544-4 0  9995
2 45447  87.8997 154.7852 0002281  72.5513 287.5864 13.11414450214575
ONEWEB-0063             
1 45448U 20020AA  24227.53334223 -.00000816  00000+0 -23393-2 0  9999
2 45448  87.8999 154.7797 0001954  75.0691 285.0654 13.11419783214661
